[{"OBJECT_NAME":"SCS-01 D","OBJECT_ID":"2025-100D","EPOCH":"2026-03-09T18:08:45.040704","MEAN_MOTION":15.31902149,"ECCENTRICITY":0.00063457,"INCLINATION":97.373,"RA_OF_ASC_NODE":145.4097,"ARG_OF_PERICENTER":266.2302,"MEAN_ANOMALY":93.8214,"EPHEMERIS_TYPE":0,"CLASSIFICATION_TYPE":"U","NORAD_CAT_ID":63985,"ELEMENT_SET_NO":999,"REV_AT_EPOCH":4562,"BSTAR":0.0010528181,"MEAN_MOTION_DOT":0.00032471,"MEAN_MOTION_DDOT":0},{"OBJECT_NAME":"STARLINK-35312","OBJECT_ID":"2025-223N","EPOCH":"2026-03-09T21:29:07.586880","MEAN_MOTION":15.30224934,"ECCENTRICITY":6.52e-5,"INCLINATION":53.1586,"RA_OF_ASC_NODE":293.4649,"ARG_OF_PERICENTER":66.1851,"MEAN_ANOMALY":293.9218,"EPHEMERIS_TYPE":0,"CLASSIFICATION_TYPE":"U","NORAD_CAT_ID":65866,"ELEMENT_SET_NO":999,"REV_AT_EPOCH":2423,"BSTAR":0.00076541431,"MEAN_MOTION_DOT":0.00022396,"MEAN_MOTION_DDOT":0}]
